[{"OBJECT_NAME":"SITRO-AIS 8 (ANOKHIN)","OBJECT_ID":"2023-091AD","EPOCH":"2026-03-09T23:44:40.058592","MEAN_MOTION":15.29359179,"ECCENTRICITY":0.0012509,"INCLINATION":97.5169,"RA_OF_ASC_NODE":133.2823,"ARG_OF_PERICENTER":92.0171,"MEAN_ANOMALY":268.2501,"EPHEMERIS_TYPE":0,"CLASSIFICATION_TYPE":"U","NORAD_CAT_ID":57193,"ELEMENT_SET_NO":999,"REV_AT_EPOCH":14927,"BSTAR":0.00064982524,"MEAN_MOTION_DOT":0.00018494,"MEAN_MOTION_DDOT":0},{"OBJECT_NAME":"STARLINK-34323","OBJECT_ID":"2025-117S","EPOCH":"2026-03-09T22:06:45.030528","MEAN_MOTION":15.30210876,"ECCENTRICITY":0.00016479,"INCLINATION":53.1607,"RA_OF_ASC_NODE":38.3501,"ARG_OF_PERICENTER":97.1046,"MEAN_ANOMALY":263.0142,"EPHEMERIS_TYPE":0,"CLASSIFICATION_TYPE":"U","NORAD_CAT_ID":64219,"ELEMENT_SET_NO":999,"REV_AT_EPOCH":4459,"BSTAR":0.0010089649,"MEAN_MOTION_DOT":0.00029653,"MEAN_MOTION_DDOT":0}]
